[
    {
        "Altitude(m)": 553468.277368979,
        "Argument of Periapsis(deg)": 0.026491964442854003,
        "Eccentricity": 0.0,
        "Inclination(deg)": 53.0,
        "Latitude(deg)": 11.875006698867386,
        "Longitude(deg)": -29.1171043794904,
        "Mean Anomaly(deg)": 14.911871470310333,
        "RAAN(deg)": 64.96057347411208,
        "Satellite Name": "Starlink Shell 1 306",
        "Satellite Number": 306,
        "Semi-Major Axis(m)": 6931778.249405717,
        "Time(s)": 760
    },
    {
        "Altitude(m)": 553469.6781758654,
        "Argument of Periapsis(deg)": 0.02684054292236524,
        "Eccentricity": 0.0,
        "Inclination(deg)": 53.0,
        "Latitude(deg)": 12.372319733156628,
        "Longitude(deg)": -28.764350096204858,
        "Mean Anomaly(deg)": 15.538702673867107,
        "RAAN(deg)": 64.9600547040346,
        "Satellite Name": "Starlink Shell 1 306",
        "Satellite Number": 306,
        "Semi-Major Axis(m)": 6931778.249405717,
        "Time(s)": 770
    },
    {
        "Altitude(m)": 553473.6691439649,
        "Argument of Periapsis(deg)": 0.027189121401876473,
        "Eccentricity": 0.0,
        "Inclination(deg)": 53.0,
        "Latitude(deg)": 12.869046556526385,
        "Longitude(deg)": -28.410100771545842,
        "Mean Anomaly(deg)": 16.165533877423762,
        "RAAN(deg)": 64.95953593395713,
        "Satellite Name": "Starlink Shell 1 306",
        "Satellite Number": 306,
        "Semi-Major Axis(m)": 6931778.249405717,
        "Time(s)": 780
    },
    {
        "Altitude(m)": 553480.2255561355,
        "Argument of Periapsis(deg)": 0.02753769988138771,
        "Eccentricity": 0.0,
        "Inclination(deg)": 53.0,
        "Latitude(deg)": 13.365160288823683,
        "Longitude(deg)": -28.054290125738074,
        "Mean Anomaly(deg)": 16.792365080980456,
        "RAAN(deg)": 64.95901716387965,
        "Satellite Name": "Starlink Shell 1 306",
        "Satellite Number": 306,
        "Semi-Major Axis(m)": 6931778.249405717,
        "Time(s)": 790
    },
    {
        "Altitude(m)": 553489.3215264966,
        "Argument of Periapsis(deg)": 0.02788627836089895,
        "Eccentricity": 0.0,
        "Inclination(deg)": 53.0,
        "Latitude(deg)": 13.860633713462748,
        "Longitude(deg)": -27.69685171171167,
        "Mean Anomaly(deg)": 17.41919628453723,
        "RAAN(deg)": 64.95849839380219,
        "Satellite Name": "Starlink Shell 1 306",
        "Satellite Number": 306,
        "Semi-Major Axis(m)": 6931778.249405717,
        "Time(s)": 800
    },
    {
        "Altitude(m)": 553500.9300159817,
        "Argument of Periapsis(deg)": 0.02823485684041019,
        "Eccentricity": 0.0,
        "Inclination(deg)": 53.0,
        "Latitude(deg)": 14.35543926172445,
        "Longitude(deg)": -27.33771838385899,
        "Mean Anomaly(deg)": 18.046027488093888,
        "RAAN(deg)": 64.95797962372471,
        "Satellite Name": "Starlink Shell 1 306",
        "Satellite Number": 306,
        "Semi-Major Axis(m)": 6931778.249405717,
        "Time(s)": 810
    },
    {
        "Altitude(m)": 553515.0228484896,
        "Argument of Periapsis(deg)": 0.028583435319921423,
        "Eccentricity": 0.0,
        "Inclination(deg)": 53.0,
        "Latitude(deg)": 14.849548996737578,
        "Longitude(deg)": -26.97682176676341,
        "Mean Anomaly(deg)": 18.672858691650646,
        "RAAN(deg)": 64.95746085364723,
        "Satellite Name": "Starlink Shell 1 306",
        "Satellite Number": 306,
        "Semi-Major Axis(m)": 6931778.249405717,
        "Time(s)": 820
    },
    {
        "Altitude(m)": 553531.5707275536,
        "Argument of Periapsis(deg)": 0.028932013799432665,
        "Eccentricity": 0.0,
        "Inclination(deg)": 53.0,
        "Latitude(deg)": 15.342934597125819,
        "Longitude(deg)": -26.614093236789245,
        "Mean Anomaly(deg)": 19.299689895207354,
        "RAAN(deg)": 64.95694208356977,
        "Satellite Name": "Starlink Shell 1 306",
        "Satellite Number": 306,
        "Semi-Major Axis(m)": 6931778.249405717,
        "Time(s)": 830
    },
    {
        "Altitude(m)": 553550.5432535746,
        "Argument of Periapsis(deg)": 0.029280592278943897,
        "Eccentricity": 0.0,
        "Inclination(deg)": 53.0,
        "Latitude(deg)": 15.835567340314268,
        "Longitude(deg)": -26.249463390805197,
        "Mean Anomaly(deg)": 19.926521098764013,
        "RAAN(deg)": 64.95642331349228,
        "Satellite Name": "Starlink Shell 1 306",
        "Satellite Number": 306,
        "Semi-Major Axis(m)": 6931778.249405717,
        "Time(s)": 840
    },
    {
        "Altitude(m)": 553571.9089415838,
        "Argument of Periapsis(deg)": 0.029629170758455132,
        "Eccentricity": 0.0,
        "Inclination(deg)": 53.0,
        "Latitude(deg)": 16.327418085479326,
        "Longitude(deg)": -25.882861514937748,
        "Mean Anomaly(deg)": 20.55335230232077,
        "RAAN(deg)": 64.95590454341482,
        "Satellite Name": "Starlink Shell 1 306",
        "Satellite Number": 306,
        "Semi-Major Axis(m)": 6931778.249405717,
        "Time(s)": 850
    },
    {
        "Altitude(m)": 553595.6352395064,
        "Argument of Periapsis(deg)": 0.02997774923796637,
        "Eccentricity": 0.0,
        "Inclination(deg)": 53.0,
        "Latitude(deg)": 16.81845725612691,
        "Longitude(deg)": -25.51421673434808,
        "Mean Anomaly(deg)": 21.18018350587748,
        "RAAN(deg)": 64.95538577333734,
        "Satellite Name": "Starlink Shell 1 306",
        "Satellite Number": 306,
        "Semi-Major Axis(m)": 6931778.249405717,
        "Time(s)": 860
    },
    {
        "Altitude(m)": 553621.6885469678,
        "Argument of Periapsis(deg)": 0.030326327717477602,
        "Eccentricity": 0.0,
        "Inclination(deg)": 53.0,
        "Latitude(deg)": 17.30865482229413,
        "Longitude(deg)": -25.14345664163545,
        "Mean Anomaly(deg)": 21.807014709434203,
        "RAAN(deg)": 64.95486700325986,
        "Satellite Name": "Starlink Shell 1 306",
        "Satellite Number": 306,
        "Semi-Major Axis(m)": 6931778.249405717,
        "Time(s)": 870
    },
    {
        "Altitude(m)": 553650.034234593,
        "Argument of Periapsis(deg)": 0.030674906196988847,
        "Eccentricity": 0.0,
        "Inclination(deg)": 53.0,
        "Latitude(deg)": 17.79798028235315,
        "Longitude(deg)": -24.770508446809103,
        "Mean Anomaly(deg)": 22.433845912990947,
        "RAAN(deg)": 64.9543482331824,
        "Satellite Name": "Starlink Shell 1 306",
        "Satellite Number": 306,
        "Semi-Major Axis(m)": 6931778.249405717,
        "Time(s)": 880
    },
    {
        "Altitude(m)": 553680.6366637641,
        "Argument of Periapsis(deg)": 0.031023484676500086,
        "Eccentricity": 0.0,
        "Inclination(deg)": 53.0,
        "Latitude(deg)": 18.286402644412057,
        "Longitude(deg)": -24.39529844643761,
        "Mean Anomaly(deg)": 23.06067711654762,
        "RAAN(deg)": 64.95382946310492,
        "Satellite Name": "Starlink Shell 1 306",
        "Satellite Number": 306,
        "Semi-Major Axis(m)": 6931778.249405717,
        "Time(s)": 890
    },
    {
        "Altitude(m)": 553713.4592069277,
        "Argument of Periapsis(deg)": 0.03137206315601132,
        "Eccentricity": 0.0,
        "Inclination(deg)": 53.0,
        "Latitude(deg)": 18.773890407298634,
        "Longitude(deg)": -24.01775149298434,
        "Mean Anomaly(deg)": 23.687508320104378,
        "RAAN(deg)": 64.95331069302745,
        "Satellite Name": "Starlink Shell 1 306",
        "Satellite Number": 306,
        "Semi-Major Axis(m)": 6931778.249405717,
        "Time(s)": 900
    },
    {
        "Altitude(m)": 553748.4642682861,
        "Argument of Periapsis(deg)": 0.03172064163552255,
        "Eccentricity": 0.0,
        "Inclination(deg)": 53.0,
        "Latitude(deg)": 19.26041154111175,
        "Longitude(deg)": -23.637791977245833,
        "Mean Anomaly(deg)": 24.314339523661076,
        "RAAN(deg)": 64.95279192294998,
        "Satellite Name": "Starlink Shell 1 306",
        "Satellite Number": 306,
        "Semi-Major Axis(m)": 6931778.249405717,
        "Time(s)": 910
    },
    {
        "Altitude(m)": 553785.6133050254,
        "Argument of Periapsis(deg)": 0.0320692201150338,
        "Eccentricity": 0.0,
        "Inclination(deg)": 53.0,
        "Latitude(deg)": 19.74593346733518,
        "Longitude(deg)": -23.25534329819259,
        "Mean Anomaly(deg)": 24.94117072721779,
        "RAAN(deg)": 64.95227315287251,
        "Satellite Name": "Starlink Shell 1 306",
        "Satellite Number": 306,
        "Semi-Major Axis(m)": 6931778.249405717,
        "Time(s)": 920
    },
    {
        "Altitude(m)": 553824.8668489193,
        "Argument of Periapsis(deg)": 0.032417798594545036,
        "Eccentricity": 0.0,
        "Inclination(deg)": 53.0,
        "Latitude(deg)": 20.230423038498945,
        "Longitude(deg)": -22.870327333138793,
        "Mean Anomaly(deg)": 25.5680019307745,
        "RAAN(deg)": 64.95175438279503,
        "Satellite Name": "Starlink Shell 1 306",
        "Satellite Number": 306,
        "Semi-Major Axis(m)": 6931778.249405717,
        "Time(s)": 930
    },
    {
        "Altitude(m)": 553866.1845284268,
        "Argument of Periapsis(deg)": 0.03276637707405627,
        "Eccentricity": 0.0,
        "Inclination(deg)": 53.0,
        "Latitude(deg)": 20.713846517376005,
        "Longitude(deg)": -22.482665421170328,
        "Mean Anomaly(deg)": 26.19483313433121,
        "RAAN(deg)": 64.95123561271757,
        "Satellite Name": "Starlink Shell 1 306",
        "Satellite Number": 306,
        "Semi-Major Axis(m)": 6931778.249405717,
        "Time(s)": 940
    }
]